OBJECT_NAME,OBJECT_ID,EPOCH,MEAN_MOTION,ECCENTRICITY,INCLINATION,RA_OF_ASC_NODE,ARG_OF_PERICENTER,MEAN_ANOMALY,EPHEMERIS_TYPE,CLASSIFICATION_TYPE,NORAD_CAT_ID,ELEMENT_SET_NO,REV_AT_EPOCH,BSTAR,MEAN_MOTION_DOT,MEAN_MOTION_DDOT
STARLINK-38047,2026-150G,2026-07-14T12:13:16.222656,15.80859566,.00036662,97.2820,33.8437,125.3440,234.8171,0,U,69745,999,321,.71675095E-3,.139688E-2,0
STARLINK-38046,2026-150H,2026-07-15T01:50:53.087712,15.80801240,.0001723,97.2826,34.4504,110.7407,249.4046,0,U,69746,999,330,.10381E-2,.203265E-2,0
STARLINK-38067,2026-150J,2026-07-15T00:39:50.923008,15.75172388,.0001002,97.2836,34.3633,95.9772,264.1607,0,U,69747,999,329,.92693E-3,.140313E-2,0
STARLINK-37988,2026-150K,2026-07-15T02:08:47.764608,15.75182932,.0002264,97.2820,34.4321,73.7828,286.3686,0,U,69748,999,330,.90882E-3,.137598E-2,0
STARLINK-37987,2026-150L,2026-07-15T04:00:03.000096,15.75261176,.0001436,97.2835,34.5242,82.2747,19.6816,0,U,69749,999,329,-.10671E-2,-.156888E-2,0
STARLINK-38037,2026-150M,2026-07-15T01:44:18.496320,15.80802355,.0002566,97.2826,34.4567,82.6947,277.4612,0,U,69750,999,330,.84676E-3,.165069E-2,0
STARLINK-38049,2026-150N,2026-07-15T01:42:50.509152,15.80798622,.0002114,97.2835,34.4594,80.5137,279.6370,0,U,69751,999,330,.83912E-3,.163515E-2,0
STARLINK-38029,2026-150P,2026-07-15T04:00:03.000096,15.75170895,.0001139,97.2838,34.5666,114.0860,81.8587,0,U,69752,999,329,-.27367E-3,-.40721E-3,0
STARLINK-37965,2026-150Q,2026-07-15T04:00:03.000096,15.75262932,.0001707,97.2833,34.5486,96.8534,61.0930,0,U,69753,999,329,-.10638E-2,-.156442E-2,0
STARLINK-38048,2026-150R,2026-07-15T01:34:01.639200,15.80819412,.0002377,97.2827,34.4667,67.2990,292.8529,0,U,69754,999,330,.90643E-3,.17709E-2,0
STARLINK-38006,2026-150S,2026-07-15T04:00:03.000096,15.75184295,.0000844,97.2836,34.5727,131.8158,78.0398,0,U,69755,999,329,-.19325E-3,-.28848E-3,0
STARLINK-38036,2026-150T,2026-07-14T23:56:47.918112,15.85047622,.002152,97.2835,34.4068,318.2350,41.7277,0,U,69756,999,329,.33652E-1,.6313593E-1,.52645E-1
STARLINK-38058,2026-150U,2026-07-15T04:00:03.000096,15.80874895,.0001403,97.2835,34.5861,95.4628,146.1071,0,U,69757,999,329,-.44007E-3,-.83858E-3,0
STARLINK-38066,2026-150V,2026-07-15T04:00:03.000096,15.80877797,.0001509,97.2836,34.5867,82.1757,160.2453,0,U,69758,999,329,-.50484E-3,-.96061E-3,0
STARLINK-38035,2026-150W,2026-07-15T01:27:21.874176,15.80827664,.0001202,97.2829,34.4730,116.8407,243.2984,0,U,69759,999,330,.89714E-3,.175292E-2,0
STARLINK-38056,2026-150X,2026-07-15T01:22:22.187136,15.80901209,.0001602,97.2842,34.4790,65.5399,294.6037,0,U,69760,999,330,.1238E-2,.244723E-2,0
STARLINK-38069,2026-150Y,2026-07-15T02:48:33.925248,15.80828648,.0002219,97.2838,34.5505,58.6604,301.4882,0,U,69761,999,331,.10158E-2,.199069E-2,0
STARLINK-38019,2026-150Z,2026-07-15T04:00:03.000096,15.75279709,.0000905,97.2833,34.5741,98.7652,115.1807,0,U,69762,999,329,-.13882E-2,-.203128E-2,0
KUIPER-00258,2026-151A,2026-07-15T03:17:04.119072,15.35386185,.0011999,51.8673,180.8371,167.8937,192.2339,0,U,69763,999,200,.39121E-3,.13319E-3,0
KUIPER-00526,2026-151B,2026-07-14T23:48:31.832640,15.37313502,.0005988,51.8751,181.3755,137.5439,222.6012,0,U,69764,999,198,.27076E-3,.9679E-4,0
KUIPER-00558,2026-151C,2026-07-15T03:01:31.588320,15.36810488,.0007678,51.8747,180.7724,151.2760,208.8650,0,U,69765,999,200,.30111E-3,.10634E-3,0
KUIPER-00569,2026-151D,2026-07-15T02:53:36.162816,15.37467497,.0005216,51.8773,180.7364,136.5939,223.5459,0,U,69766,999,200,.29456E-3,.10619E-3,0
KUIPER-00589,2026-151E,2026-07-15T02:54:36.165888,15.37406712,.0005363,51.8743,180.7417,142.0949,218.0416,0,U,69767,999,200,.20091E-3,.71E-4,0
KUIPER-00598,2026-151F,2026-07-15T03:16:23.046240,15.34971912,.0008704,51.8667,180.8348,164.9723,195.1523,0,U,69768,999,200,-.49089E-3,-.17275E-3,0
KUIPER-00604,2026-151G,2026-07-14T23:37:35.526144,15.38227755,.0002756,51.8787,181.3221,106.8521,253.2768,0,U,69769,999,198,.24076E-3,.8826E-4,0
KUIPER-00609,2026-151H,2026-07-15T04:13:13.008864,15.38634195,.000118,51.8786,180.3556,66.2142,293.8969,0,U,69770,999,201,.33534E-3,.12625E-3,0
KUIPER-00611,2026-151J,2026-07-15T04:15:41.179680,15.38447187,.0001783,51.8790,180.3621,106.5320,253.5863,0,U,69771,999,201,.31535E-3,.11773E-3,0
KUIPER-00612,2026-151K,2026-07-15T04:21:50.200128,15.37935653,.0003841,51.8781,180.3951,116.5259,243.6123,0,U,69772,999,201,.31741E-3,.11653E-3,0
KUIPER-00614,2026-151L,2026-07-15T04:19:17.532192,15.38150211,.0002299,51.8788,180.3848,113.4878,246.6351,0,U,69773,999,201,.39298E-3,.1463E-3,0
KUIPER-00615,2026-151M,2026-07-15T02:56:49.843104,15.37225790,.0006118,51.8764,180.7501,146.3115,213.8262,0,U,69774,999,200,.30096E-3,.10773E-3,0
