STARLINK-38047          
1 69745U 26150G   26195.50921554  .00139688  00000+0  71675-3 0  9992
2 69745  97.2820  33.8437 0003666 125.3440 234.8171 15.80859566  3214
STARLINK-38046          
1 69746U 26150H   26196.07700333  .00203265  00000+0  10381-2 0  9995
2 69746  97.2826  34.4504 0001723 110.7407 249.4046 15.80801240  3305
STARLINK-38067          
1 69747U 26150J   26196.02767272  .00140313  00000+0  92693-3 0  9997
2 69747  97.2836  34.3633 0001002  95.9772 264.1607 15.75172388  3291
STARLINK-37988          
1 69748U 26150K   26196.08944172  .00137598  00000+0  90882-3 0  9999
2 69748  97.2820  34.4321 0002264  73.7828 286.3686 15.75182932  3308
STARLINK-37987          
1 69749U 26150L   26196.16670139 -.00156888  00000+0 -10671-2 0  9990
2 69749  97.2835  34.5242 0001436  82.2747  19.6816 15.75261176  3291
STARLINK-38037          
1 69750U 26150M   26196.07243630  .00165069  00000+0  84676-3 0  9990
2 69750  97.2826  34.4567 0002566  82.6947 277.4612 15.80802355  3309
STARLINK-38049          
1 69751U 26150N   26196.07141793  .00163515  00000+0  83912-3 0  9994
2 69751  97.2835  34.4594 0002114  80.5137 279.6370 15.80798622  3303
STARLINK-38029          
1 69752U 26150P   26196.16670139 -.00040721  00000+0 -27367-3 0  9993
2 69752  97.2838  34.5666 0001139 114.0860  81.8587 15.75170895  3291
STARLINK-37965          
1 69753U 26150Q   26196.16670139 -.00156442  00000+0 -10638-2 0  9994
2 69753  97.2833  34.5486 0001707  96.8534  61.0930 15.75262932  3299
STARLINK-38048          
1 69754U 26150R   26196.06529675  .00177090  00000+0  90643-3 0  9997
2 69754  97.2827  34.4667 0002377  67.2990 292.8529 15.80819412  3302
STARLINK-38006          
1 69755U 26150S   26196.16670139 -.00028848  00000+0 -19325-3 0  9997
2 69755  97.2836  34.5727 0000844 131.8158  78.0398 15.75184295  3296
STARLINK-38036          
1 69756U 26150T   26195.99777683  .06313593  52645-1  33652-1 0  9999
2 69756  97.2835  34.4068 0021520 318.2350  41.7277 15.85047622  3298
STARLINK-38058          
1 69757U 26150U   26196.16670139 -.00083858  00000+0 -44007-3 0  9996
2 69757  97.2835  34.5861 0001403  95.4628 146.1071 15.80874895  3298
STARLINK-38066          
1 69758U 26150V   26196.16670139 -.00096061  00000+0 -50484-3 0  9993
2 69758  97.2836  34.5867 0001509  82.1757 160.2453 15.80877797  3294
STARLINK-38035          
1 69759U 26150W   26196.06066984  .00175292  00000+0  89714-3 0  9990
2 69759  97.2829  34.4730 0001202 116.8407 243.2984 15.80827664  3303
STARLINK-38056          
1 69760U 26150X   26196.05720124  .00244723  00000+0  12380-2 0  9994
2 69760  97.2842  34.4790 0001602  65.5399 294.6037 15.80901209  3307
STARLINK-38069          
1 69761U 26150Y   26196.11705932  .00199069  00000+0  10158-2 0  9995
2 69761  97.2838  34.5505 0002219  58.6604 301.4882 15.80828648  3316
STARLINK-38019          
1 69762U 26150Z   26196.16670139 -.00203128  00000+0 -13882-2 0  9992
2 69762  97.2833  34.5741 0000905  98.7652 115.1807 15.75279709  3298
KUIPER-00258            
1 69763U 26151A   26196.13685323  .00013319  00000+0  39121-3 0  9996
2 69763  51.8673 180.8371 0011999 167.8937 192.2339 15.35386185  2007
KUIPER-00526            
1 69764U 26151B   26195.99203510  .00009679  00000+0  27076-3 0  9994
2 69764  51.8751 181.3755 0005988 137.5439 222.6012 15.37313502  1986
KUIPER-00558            
1 69765U 26151C   26196.12606005  .00010634  00000+0  30111-3 0  9994
2 69765  51.8747 180.7724 0007678 151.2760 208.8650 15.36810488  2001
KUIPER-00569            
1 69766U 26151D   26196.12055744  .00010619  00000+0  29456-3 0  9996
2 69766  51.8773 180.7364 0005216 136.5939 223.5459 15.37467497  2001
KUIPER-00589            
1 69767U 26151E   26196.12125192  .00007100  00000+0  20091-3 0  9999
2 69767  51.8743 180.7417 0005363 142.0949 218.0416 15.37406712  2009
KUIPER-00598            
1 69768U 26151F   26196.13637785 -.00017275  00000+0 -49089-3 0  9991
2 69768  51.8667 180.8348 0008704 164.9723 195.1523 15.34971912  2004
KUIPER-00604            
1 69769U 26151G   26195.98443896  .00008826  00000+0  24076-3 0  9991
2 69769  51.8787 181.3221 0002756 106.8521 253.2768 15.38227755  1982
KUIPER-00609            
1 69770U 26151H   26196.17584501  .00012625  00000+0  33534-3 0  9995
2 69770  51.8786 180.3556 0001180  66.2142 293.8969 15.38634195  2019
KUIPER-00611            
1 69771U 26151J   26196.17755995  .00011773  00000+0  31535-3 0  9995
2 69771  51.8790 180.3621 0001783 106.5320 253.5863 15.38447187  2012
KUIPER-00612            
1 69772U 26151K   26196.18183102  .00011653  00000+0  31741-3 0  9998
2 69772  51.8781 180.3951 0003841 116.5259 243.6123 15.37935653  2016
KUIPER-00614            
1 69773U 26151L   26196.18006403  .00014630  00000+0  39298-3 0  9990
2 69773  51.8788 180.3848 0002299 113.4878 246.6351 15.38150211  2014
KUIPER-00615            
1 69774U 26151M   26196.12279911  .00010773  00000+0  30096-3 0  9992
2 69774  51.8764 180.7501 0006118 146.3115 213.8262 15.37225790  2002
